start=new Date('2021-10-04T00:00:00.000Z').valueOf();
sats=[{"DECAY_DATE":null,"RA_OF_ASC_NODE":"74.3522","APOAPSIS":"548.671","ARG_OF_PERICENTER":"86.3690","GP_ID":"186141662","CLASSIFICATION_TYPE":"U","TIME_SYSTEM":"UTC","INCLINATION":"53.0562","MEAN_MOTION_DDOT":"0.0000000000000","BSTAR":"0.00001277100000","PERIAPSIS":"545.740","MEAN_ELEMENT_THEORY":"SGP4","MEAN_MOTION_DOT":"-0.00000092","TLE_LINE2":"2 47604  53.0562  74.3522 0002116  86.3690 273.7541 15.06402582 37090","LAUNCH_DATE":"2021-02-04","CENTER_NAME":"EARTH","SITE":"AFETR","PERIOD":"95.592","OBJECT_TYPE":"PAYLOAD","NORAD_CAT_ID":"47604","ECCENTRICITY":"0.00021160","OBJECT_NAME":"STARLINK-2021","EPHEMERIS_TYPE":"0","COUNTRY_CODE":"US","REV_AT_EPOCH":"3709","RCS_SIZE":"LARGE","OBJECT_ID":"2021-009BJ","EPOCH":"2021-10-03T20:34:27.746112","REF_FRAME":"TEME","ELEMENT_SET_NO":"999","FILE":"3143202","TLE_LINE1":"1 47604U 21009BJ  21276.85726558 -.00000092  00000-0  12771-4 0  9991","MEAN_MOTION":"15.06402582","SEMIMAJOR_AXIS":"6925.341","MEAN_ANOMALY":"273.7541"},{"ECCENTRICITY":"0.00022250","OBJECT_TYPE":"PAYLOAD","NORAD_CAT_ID":"47605","SITE":"AFETR","CENTER_NAME":"EARTH","PERIOD":"95.592","RCS_SIZE":"LARGE","REV_AT_EPOCH":"3706","OBJECT_NAME":"STARLINK-2023","COUNTRY_CODE":"US","EPHEMERIS_TYPE":"0","ELEMENT_SET_NO":"999","REF_FRAME":"TEME","OBJECT_ID":"2021-009BK","EPOCH":"2021-10-03T17:18:04.553856","MEAN_ANOMALY":"273.3313","MEAN_MOTION":"15.06395668","SEMIMAJOR_AXIS":"6925.362","FILE":"3143202","TLE_LINE1":"1 47605U 21009BK  21276.72088604  .00001278  00000-0  10472-3 0  9992","DECAY_DATE":null,"GP_ID":"186142900","ARG_OF_PERICENTER":"86.7930","RA_OF_ASC_NODE":"74.9628","APOAPSIS":"548.768","MEAN_MOTION_DDOT":"0.0000000000000","BSTAR":"0.00010472000000","TIME_SYSTEM":"UTC","INCLINATION":"53.0532","CLASSIFICATION_TYPE":"U","MEAN_MOTION_DOT":"0.00001278","LAUNCH_DATE":"2021-02-04","TLE_LINE2":"2 47605  53.0532  74.9628 0002225  86.7930 273.3313 15.06395668 37069","MEAN_ELEMENT_THEORY":"SGP4","PERIAPSIS":"545.686"},{"TLE_LINE1":"1 47606U 21009BL  21276.72825295 -.00000646  00000-0 -24469-4 0  9990","FILE":"3143202","SEMIMAJOR_AXIS":"6925.344","MEAN_MOTION":"15.06401450","MEAN_ANOMALY":"266.5477","EPOCH":"2021-10-03T17:28:41.054880","OBJECT_ID":"2021-009BL","REF_FRAME":"TEME","ELEMENT_SET_NO":"999","EPHEMERIS_TYPE":"0","COUNTRY_CODE":"US","OBJECT_NAME":"STARLINK-2024","REV_AT_EPOCH":"3707","RCS_SIZE":"LARGE","PERIOD":"95.592","SITE":"AFETR","CENTER_NAME":"EARTH","NORAD_CAT_ID":"47606","OBJECT_TYPE":"PAYLOAD","ECCENTRICITY":"0.00021740","PERIAPSIS":"545.704","MEAN_ELEMENT_THEORY":"SGP4","TLE_LINE2":"2 47606  53.0549  74.9121 0002174  93.5761 266.5477 15.06401450 37070","LAUNCH_DATE":"2021-02-04","MEAN_MOTION_DOT":"-0.00000646","CLASSIFICATION_TYPE":"U","INCLINATION":"53.0549","TIME_SYSTEM":"UTC","BSTAR":"-0.00002446900000","MEAN_MOTION_DDOT":"0.0000000000000","APOAPSIS":"548.715","RA_OF_ASC_NODE":"74.9121","ARG_OF_PERICENTER":"93.5761","GP_ID":"186143151","DECAY_DATE":null},{"ECCENTRICITY":"0.00019360","PERIOD":"95.592","CENTER_NAME":"EARTH","SITE":"AFETR","NORAD_CAT_ID":"47607","OBJECT_TYPE":"PAYLOAD","REV_AT_EPOCH":"3706","RCS_SIZE":"LARGE","COUNTRY_CODE":"US","EPHEMERIS_TYPE":"0","OBJECT_NAME":"STARLINK-2025","REF_FRAME":"TEME","ELEMENT_SET_NO":"999","EPOCH":"2021-10-03T16:56:50.286048","OBJECT_ID":"2021-009BM","MEAN_ANOMALY":"266.7490","FILE":"3143202","TLE_LINE1":"1 47607U 21009BM  21276.70613757 -.00000223  00000-0  39345-5 0  9997","SEMIMAJOR_AXIS":"6925.344","MEAN_MOTION":"15.06401367","DECAY_DATE":null,"GP_ID":"186141899","RA_OF_ASC_NODE":"75.0372","APOAPSIS":"548.550","ARG_OF_PERICENTER":"93.3720","INCLINATION":"53.0559","TIME_SYSTEM":"UTC","MEAN_MOTION_DDOT":"0.0000000000000","BSTAR":"0.00000393450000","CLASSIFICATION_TYPE":"U","TLE_LINE2":"2 47607  53.0559  75.0372 0001936  93.3720 266.7490 15.06401367 37063","LAUNCH_DATE":"2021-02-04","MEAN_MOTION_DOT":"-0.00000223","PERIAPSIS":"545.869","MEAN_ELEMENT_THEORY":"SGP4"},{"INCLINATION":"53.0554","TIME_SYSTEM":"UTC","BSTAR":"-0.00001666300000","MEAN_MOTION_DDOT":"0.0000000000000","CLASSIFICATION_TYPE":"U","LAUNCH_DATE":"2021-02-16","TLE_LINE2":"2 47620  53.0554 134.3636 0001502  73.9745 286.1409 15.06388580 36139","MEAN_MOTION_DOT":"-0.00000530","PERIAPSIS":"546.208","MEAN_ELEMENT_THEORY":"SGP4","DECAY_DATE":null,"GP_ID":"186143152","APOAPSIS":"548.289","RA_OF_ASC_NODE":"134.3636","ARG_OF_PERICENTER":"73.9745","REF_FRAME":"TEME","ELEMENT_SET_NO":"999","EPOCH":"2021-10-03T20:31:48.946368","OBJECT_ID":"2021-012A","MEAN_ANOMALY":"286.1409","FILE":"3143202","TLE_LINE1":"1 47620U 21012A   21276.85542762 -.00000530  00000-0 -16663-4 0  9998","SEMIMAJOR_AXIS":"6925.384","MEAN_MOTION":"15.06388580","ECCENTRICITY":"0.00015020","PERIOD":"95.593","CENTER_NAME":"EARTH","SITE":"AFETR","NORAD_CAT_ID":"47620","OBJECT_TYPE":"PAYLOAD","REV_AT_EPOCH":"3613","RCS_SIZE":"LARGE","COUNTRY_CODE":"US","EPHEMERIS_TYPE":"0","OBJECT_NAME":"STARLINK-1528"},{"EPOCH":"2021-10-03T20:21:12.652704","OBJECT_ID":"2021-012B","REF_FRAME":"TEME","ELEMENT_SET_NO":"999","TLE_LINE1":"1 47621U 21012B   21276.84806311  .00000023  00000-0  20461-4 0  9997","FILE":"3143202","SEMIMAJOR_AXIS":"6925.392","MEAN_MOTION":"15.06385703","MEAN_ANOMALY":"269.2076","PERIOD":"95.593","CENTER_NAME":"EARTH","SITE":"AFETR","NORAD_CAT_ID":"47621","OBJECT_TYPE":"PAYLOAD","ECCENTRICITY":"0.00018760","EPHEMERIS_TYPE":"0","COUNTRY_CODE":"US","OBJECT_NAME":"STARLINK-1609","REV_AT_EPOCH":"3614","RCS_SIZE":"LARGE","CLASSIFICATION_TYPE":"U","INCLINATION":"53.0549","TIME_SYSTEM":"UTC","MEAN_MOTION_DDOT":"0.0000000000000","BSTAR":"0.00002046100000","PERIAPSIS":"545.958","MEAN_ELEMENT_THEORY":"SGP4","TLE_LINE2":"2 47621  53.0549 134.3868 0001876  90.9127 269.2076 15.06385703 36145","LAUNCH_DATE":"2021-02-16","MEAN_MOTION_DOT":"0.00000023","DECAY_DATE":null,"RA_OF_ASC_NODE":"134.3868","APOAPSIS":"548.557","ARG_OF_PERICENTER":"90.9127","GP_ID":"186141900"},{"DECAY_DATE":null,"APOAPSIS":"548.371","RA_OF_ASC_NODE":"134.3965","ARG_OF_PERICENTER":"73.9104","GP_ID":"186142150","CLASSIFICATION_TYPE":"U","TIME_SYSTEM":"UTC","INCLINATION":"53.0545","BSTAR":"0.00003673900000","MEAN_MOTION_DDOT":"0.0000000000000","PERIAPSIS":"546.130","MEAN_ELEMENT_THEORY":"SGP4","MEAN_MOTION_DOT":"0.00000266","LAUNCH_DATE":"2021-02-16","TLE_LINE2":"2 47622  53.0545 134.3965 0001618  73.9104 286.2063 15.06387902 36137","CENTER_NAME":"EARTH","SITE":"AFETR","PERIOD":"95.593","OBJECT_TYPE":"PAYLOAD","NORAD_CAT_ID":"47622","ECCENTRICITY":"0.00016180","OBJECT_NAME":"STARLINK-1645","COUNTRY_CODE":"US","EPHEMERIS_TYPE":"0","REV_AT_EPOCH":"3613","RCS_SIZE":"LARGE","OBJECT_ID":"2021-012C","EPOCH":"2021-10-03T20:15:53.925696","REF_FRAME":"TEME","ELEMENT_SET_NO":"999","TLE_LINE1":"1 47622U 21012C   21276.84437414  .00000266  00000-0  36739-4 0  9996","FILE":"3143202","MEAN_MOTION":"15.06387902","SEMIMAJOR_AXIS":"6925.386","MEAN_ANOMALY":"286.2063"},{"PERIOD":"95.592","CENTER_NAME":"EARTH","SITE":"AFETR","NORAD_CAT_ID":"47623","OBJECT_TYPE":"PAYLOAD","ECCENTRICITY":"0.00019190","EPHEMERIS_TYPE":"0","COUNTRY_CODE":"US","OBJECT_NAME":"STARLINK-1655","REV_AT_EPOCH":"3703","RCS_SIZE":"LARGE","EPOCH":"2021-10-03T17:21:23.811264","OBJECT_ID":"2021-012D","REF_FRAME":"TEME","ELEMENT_SET_NO":"999","TLE_LINE1":"1 47623U 21012D   21276.72319226 -.00000345  00000-0 -42523-5 0  9993","FILE":"3143202","SEMIMAJOR_AXIS":"6925.366","MEAN_MOTION":"15.06394331","MEAN_ANOMALY":"256.1229","DECAY_DATE":null,"RA_OF_ASC_NODE":"69.9386","APOAPSIS":"548.560","ARG_OF_PERICENTER":"103.9974","GP_ID":"186142415","CLASSIFICATION_TYPE":"U","INCLINATION":"53.0562","TIME_SYSTEM":"UTC","MEAN_MOTION_DDOT":"0.0000000000000","BSTAR":"-0.00000425230000","PERIAPSIS":"545.902","MEAN_ELEMENT_THEORY":"SGP4","LAUNCH_DATE":"2021-02-16","TLE_LINE2":"2 47623  53.0562  69.9386 0001919 103.9974 256.1229 15.06394331 37034","MEAN_MOTION_DOT":"-0.00000345"},{"MEAN_MOTION_DDOT":"0.0000000000000","BSTAR":"-0.00000480710000","TIME_SYSTEM":"UTC","INCLINATION":"53.0549","CLASSIFICATION_TYPE":"U","MEAN_MOTION_DOT":"-0.00000353","LAUNCH_DATE":"2021-02-16","TLE_LINE2":"2 47624  53.0549 114.3747 0001756  90.4171 269.7019 15.06389504 36430","MEAN_ELEMENT_THEORY":"SGP4","PERIAPSIS":"546.030","DECAY_DATE":null,"GP_ID":"186142666","ARG_OF_PERICENTER":"90.4171","APOAPSIS":"548.462","RA_OF_ASC_NODE":"114.3747","ELEMENT_SET_NO":"999","REF_FRAME":"TEME","OBJECT_ID":"2021-012E","EPOCH":"2021-10-03T20:23:51.727200","MEAN_ANOMALY":"269.7019","MEAN_MOTION":"15.06389504","SEMIMAJOR_AXIS":"6925.381","TLE_LINE1":"1 47624U 21012E   21276.84990425 -.00000353  00000-0 -48071-5 0  9996","FILE":"3143202","ECCENTRICITY":"0.00017560","OBJECT_TYPE":"PAYLOAD","NORAD_CAT_ID":"47624","SITE":"AFETR","CENTER_NAME":"EARTH","PERIOD":"95.593","RCS_SIZE":"LARGE","REV_AT_EPOCH":"3643","OBJECT_NAME":"STARLINK-1669","EPHEMERIS_TYPE":"0","COUNTRY_CODE":"US"},{"CENTER_NAME":"EARTH","SITE":"AFETR","PERIOD":"95.593","OBJECT_TYPE":"PAYLOAD","NORAD_CAT_ID":"47625","ECCENTRICITY":"0.00019510","OBJECT_NAME":"STARLINK-1704","EPHEMERIS_TYPE":"0","COUNTRY_CODE":"US","REV_AT_EPOCH":"3613","RCS_SIZE":"LARGE","OBJECT_ID":"2021-012F","EPOCH":"2021-10-03T20:26:30.903648","REF_FRAME":"TEME","ELEMENT_SET_NO":"999","TLE_LINE1":"1 47625U 21012F   21276.85174657 -.00000331  00000-0 -33395-5 0  9998","FILE":"3143202","MEAN_MOTION":"15.06391331","SEMIMAJOR_AXIS":"6925.375","MEAN_ANOMALY":"274.8200","DECAY_DATE":null,"RA_OF_ASC_NODE":"134.3692","APOAPSIS":"548.591","ARG_OF_PERICENTER":"85.3012","GP_ID":"186141414","CLASSIFICATION_TYPE":"U","TIME_SYSTEM":"UTC","INCLINATION":"53.0548","MEAN_MOTION_DDOT":"0.0000000000000","BSTAR":"-0.00000333950000","PERIAPSIS":"545.889","MEAN_ELEMENT_THEORY":"SGP4","MEAN_MOTION_DOT":"-0.00000331","LAUNCH_DATE":"2021-02-16","TLE_LINE2":"2 47625  53.0548 134.3692 0001951  85.3012 274.8200 15.06391331 36132"}];
